{
   "addresses":[
      {
         "ClientID":"41112",
         "Company name":"RIST DEL MORO DI ACAMPORA G. & C. SAS",
         "Address":"PIAZZA GUGLIELMO MARCONI 4",
         "ZIP":"15040",
         "Region":"OCCIMIANO",
         "State":"AL",
         "Country code":"IT"
      },
      {
         "ClientID":"41176",
         "Company name":"G. DI MASI di DI MASI FRANCO & C. SAS",
         "Company name 2":"RISTORANTE",
         "Address":"VIA S. ALFONSO, 88",
         "ZIP":"83040",
         "Region":"CAPOSELE",
         "State":"AV",
         "Country code":"IT"
      },
      {
         "ClientID":"40094",
         "Company name":"FONTANAROSA RESIDENCE SAS",
         "Address":"C.DA PEZZA MASTRILLO 16",
         "ZIP":"83040",
         "Region":"FONTANAROSA",
         "State":"AV",
         "Country code":"IT"
      },
      {
         "ClientID":"40038",
         "Company name":"D'AMBROSIO ANTONIO",
         "Company name 2":"NON SOLO PIZZA",
         "Address":"VIA LAURETA SNC",
         "ZIP":"83036",
         "Region":"MIRABELLA ECLANO",
         "State":"AV",
         "Country code":"IT"
      },
      {
         "ClientID":"40995",
         "Company name":"IL RICCIO SRL",
         "Address":"VIA PEZZA SAN VITO, 1",
         "ZIP":"83036",
         "Region":"MIRABELLA ECLANO",
         "State":"AV",
         "Country code":"IT"
      },
      {
         "ClientID":"41230",
         "Company name":"RIST. ALL'ARCO di SAN MICHELE SNC",
         "Company name 2":"di MARCO CONFORTI & C.",
         "Address":"VIA PETRARA SNC - TORCHIATI",
         "ZIP":"83025",
         "Region":"MONTORO SUPERIORE",
         "State":"AV",
         "Country code":"IT"
      },
      {
         "ClientID":"41055",
         "Company name":"IRPINIA AVANTI SOC. COOP. SOCIALE",
         "Address":"PIAZZA GIORDANO BRUNO",
         "ZIP":"83056",
         "Region":"TEORA",
         "State":"AV",
         "Country code":"IT"
      },
      {
         "ClientID":"40014",
         "Company name":"3 EMME SRL",
         "Address":"VIA MARCONI, 65",
         "ZIP":"24010",
         "Region":"SORISOLE",
         "State":"BG",
         "Country code":"IT"
      },
      {
         "ClientID":"40702",
         "Company name":"WANG LIFEN",
         "Company name 2":"KUMO RISTORANTE GIAPPONESE",
         "Address":"VIALE PRINCIPE DI NAPOLI, 22-24-26",
         "ZIP":"82100",
         "Region":"BENEVENTO",
         "State":"BN",
         "Country code":"IT"
      },
      {
         "ClientID":"41310",
         "Company name":"CARACCIO MARIANTONIETTA",
         "Company name 2":"AZ. AGR. TAVERNA DEL MARCHESE",
         "Address":"Contrada Marchese, 8",
         "ZIP":"82020",
         "Region":"SAN GIORGIO LA MOLARA",
         "State":"BN",
         "Country code":"IT"
      },
      {
         "ClientID":"41288",
         "Company name":"LA LUCE SUL LAGO SRLS",
         "Address":"VIA MARCHESINI, 1",
         "ZIP":"25080",
         "Region":"MANERBA DEL GARDA",
         "State":"BS",
         "Country code":"IT"
      },
      {
         "ClientID":"41266",
         "Company name":"MIFA SRLS",
         "Address":"VIA ENRICO TOTI, 48",
         "ZIP":"81033",
         "Region":"CASAL DI PRINCIPE",
         "State":"CE",
         "Country code":"IT"
      },
      {
         "ClientID":"40041",
         "Company name":"LA FIASCHETTA di LUONGO ANTONELLA",
         "Address":"VIA VILLANOVA, 28",
         "ZIP":"81013",
         "Region":"PIANA DI MONTE VERNA",
         "State":"CE",
         "Country code":"IT"
      },
      {
         "ClientID":"40004",
         "Company name":"COMMERCIALE DOMAG SRL",
         "Address":"VIA NAZ. APPIA -Loc. PONTICELLO Zona PIP",
         "ZIP":"81050",
         "Region":"SAN TAMMARO",
         "State":"CE",
         "Country code":"IT"
      },
      {
         "ClientID":"40928",
         "Company name":"WHEN IN ROME WINE LTD",
         "Company name 2":"c\/o Studio 1, Halliday's Mill",
         "Address":"LONDON ROAD - CHALFORD -",
         "ZIP":"GL6",
         "Region":"8RN STROUD- Gloucestershire",
         "State":"GB",
         "Country code":"GB"
      },
      {
         "ClientID":"41195",
         "Company name":"ELBE’ di BARONE PASQUALE",
         "Address":"VIA ROMA, 27",
         "ZIP":"57034",
         "Region":"CAMPO NELL'ELBA",
         "State":"LI",
         "Country code":"IT"
      },
      {
         "ClientID":"41282",
         "Company name":"ENOT.ELBA WINE di FRANCESCA BUONGIOVANNI",
         "Address":"VIA DONIZETTI, 6 - FRAZ. MARINA DI CAMPO",
         "ZIP":"57034",
         "Region":"CAMPO NELL'ELBA (ISOLA D'ELBA)",
         "State":"LI",
         "Country code":"IT"
      },
      {
         "ClientID":"41259",
         "Company name":"TRATTORIA NONNA ISOLA di FACCENDA ENRICO",
         "Address":"VIA AURELIA N. 556\/558",
         "ZIP":"57016",
         "Region":"CASTIGLIONCELLO",
         "State":"LI",
         "Country code":"IT"
      },
      {
         "ClientID":"41265",
         "Company name":"BAR SIRENA SAS DI MELONI FILIPPO & C.",
         "Address":"CORSO MAZZINI 306",
         "ZIP":"57100",
         "Region":"LIVORNO",
         "State":"LI",
         "Country code":"IT"
      },
      {
         "ClientID":"41270",
         "Company name":"SALATTI INGRO IMPORT SRL",
         "Address":"VIA P.N. MAGRI, 9",
         "ZIP":"57121",
         "Region":"LIVORNO",
         "State":"LI",
         "Country code":"IT"
      },
      {
         "ClientID":"41268",
         "Company name":"BAR RISTOR. ALITHAI di UMBERTO IERVOLINO",
         "Address":"LOC. MAGAZZINI",
         "ZIP":"57037",
         "Region":"PORTOFERRAIO",
         "State":"LI",
         "Country code":"IT"
      },
      {
         "ClientID":"41300",
         "Company name":"RUSSO ILARIA & C. SAS",
         "Company name 2":"C'ERA UNA VOLTA TOTO' E PEPPINO",
         "Address":"VIA GARIBALDI, 37",
         "ZIP":"57037",
         "Region":"PORTOFERRAIO",
         "State":"LI",
         "Country code":"IT"
      },
      {
         "ClientID":"41325",
         "Company name":"G.A.F. SRLS - A DU' DON SALVATORE",
         "Address":"VIA ANNUNZIATA, 68",
         "ZIP":"04024",
         "Region":"GAETA",
         "State":"LT",
         "Country code":"IT"
      },
      {
         "ClientID":"41319",
         "Company name":"RIK'S BAR di BERNARDI SILVIA & C. SAS",
         "Address":"VIA PAOLINELLI, 31",
         "ZIP":"55014",
         "Region":"MARLIA",
         "State":"LU",
         "Country code":"IT"
      },
      {
         "ClientID":"40582",
         "Company name":"BOTTIGLIERIA LUCCHESI SNC",
         "Address":"VIA CAIROLI, 95",
         "ZIP":"55049",
         "Region":"VIAREGGIO",
         "State":"LU",
         "Country code":"IT"
      },
      {
         "ClientID":"41129",
         "Company name":"LARA SAS DI PALA SALVATORE & C.",
         "Company name 2":"CASA LARA",
         "Address":"VIA ALCIDE DE GASPERI",
         "ZIP":"20083",
         "Region":"GAGGIANO",
         "State":"MI",
         "Country code":"IT"
      },
      {
         "ClientID":"40606",
         "Company name":"PASSIONE SRL",
         "Address":"VIA GIACOMO BONI, 33",
         "ZIP":"20144",
         "Region":"MILANO",
         "State":"MI",
         "Country code":"IT"
      },
      {
         "ClientID":"40629",
         "Company name":"MILANOVINO SRL",
         "Address":"VIA SAVONA, 7",
         "ZIP":"20144",
         "Region":"MILANO",
         "State":"MI",
         "Country code":"IT"
      },
      {
         "ClientID":"41080",
         "Company name":"DIELLE GROUP SRLS",
         "Address":"VIA RUBENS, 19",
         "ZIP":"20148",
         "Region":"MILANO",
         "State":"MI",
         "Country code":"IT"
      },
      {
         "ClientID":"41257",
         "Company name":"BAR FUSINA  di CRESCENTE NICOLA",
         "Address":"PIAZZA FUSINA N.1",
         "ZIP":"20133",
         "Region":"MILANO",
         "State":"MI",
         "Country code":"IT"
      },
      {
         "ClientID":"41297",
         "Company name":"PEREGO MAURO",
         "Address":"VIA CLERICETTI, 36",
         "ZIP":"20133",
         "Region":"MILANO",
         "State":"MI",
         "Country code":"IT"
      },
      {
         "ClientID":"41329",
         "Company name":"STEROGEL S.A.S. di ESPOSITO ROBERTO & ST",
         "Address":"VIALE MONZA, 116",
         "ZIP":"20127",
         "Region":"MILANO",
         "State":"MI",
         "Country code":"IT"
      },
      {
         "ClientID":"40115",
         "Company name":"SAAD ALASHA& C. SAS RIST.NUMBER ONE",
         "Address":"VIA FIRENZE 41",
         "ZIP":"20099",
         "Region":"SESTO SAN GIOVANNI",
         "State":"MI",
         "Country code":"IT"
      },
      {
         "ClientID":"41256",
         "Company name":"ARIMONTI ANTONIO",
         "Company name 2":"INGROSSO ALIMENTARI",
         "Address":"VIA COMMENDA 71 INT. 15",
         "ZIP":"41013",
         "Region":"CASTELFRANCO EMILIA",
         "State":"MO",
         "Country code":"IT"
      },
      {
         "ClientID":"41165",
         "Company name":"ARBACE ALESSANDRO",
         "Address":"PIAZZA UMBERTO I, 4",
         "ZIP":"80037",
         "Region":"CAPRI",
         "State":"NA",
         "Country code":"IT"
      },
      {
         "ClientID":"41228",
         "Company name":"MG SERVICE SRLS",
         "Address":"VIA NINO BIXIO ,6",
         "ZIP":"80025",
         "Region":"CASANDRINO",
         "State":"NA",
         "Country code":"IT"
      },
      {
         "ClientID":"40706",
         "Company name":"GEN.AL S.A.S. DI ESPOSITO VINCENZO",
         "Company name 2":"LE CHARCUTERIE",
         "Address":"VIA BENEDETTO CROCE, 43",
         "ZIP":"80134",
         "Region":"NAPOLI",
         "State":"NA",
         "Country code":"IT"
      },
      {
         "ClientID":"41280",
         "Company name":"DISTRIBUZIONE S & G SAS di STORACE",
         "Address":"VIA FEDERICO FELLINI, 2",
         "ZIP":"80029",
         "Region":"SANT'ANTIMO",
         "State":"NA",
         "Country code":"IT"
      },
      {
         "ClientID":"40742",
         "Company name":"SICIGNANO DOMENICO",
         "Address":"VIA MARNA, 83",
         "ZIP":"80057",
         "Region":"SANT'ANTONIO ABATE",
         "State":"NA",
         "Country code":"IT"
      },
      {
         "ClientID":"41223",
         "Company name":"IL GIARDINIERE di  LUMIA GIUSEPPE",
         "Company name 2":"WINE-ALL",
         "Address":"VIA GARIBALDI, 49",
         "ZIP":"35020",
         "Region":"PONTE SAN NICOLO'",
         "State":"PD",
         "Country code":"IT"
      },
      {
         "ClientID":"41063",
         "Company name":"POLO SPA",
         "Address":"VIA SAN BENEDETTO, 44\/A - Z.I.",
         "ZIP":"35037",
         "Region":"TEOLO",
         "State":"PD",
         "Country code":"IT"
      },
      {
         "ClientID":"41216",
         "Company name":"RISTORO LE TERME DI SAN GALIGANO SRL",
         "Address":"VIA SAN GALIGANO, 134",
         "ZIP":"06123",
         "Region":"PERUGIA",
         "State":"PG",
         "Country code":"IT"
      },
      {
         "ClientID":"41219",
         "Company name":"BAR IL CIRCOLO di BALLINI ANNAMARIA",
         "Address":"VIA G. MATTEOTTI, 119",
         "ZIP":"56040",
         "Region":"CENAIA",
         "State":"PI",
         "Country code":"IT"
      },
      {
         "ClientID":"41250",
         "Company name":"IL GASTRONOMO SNC di DI ESPOSITO F. & c.",
         "Address":"VIA DANTE ALIGHIERI,  82 - LOC. CAPANNE",
         "ZIP":"56020",
         "Region":"MONTOPOLI IN VAL D' ARNO",
         "State":"PI",
         "Country code":"IT"
      },
      {
         "ClientID":"41169",
         "Company name":"MA.GIA. SRL",
         "Company name 2":"Ristorante GULLIVER",
         "Address":"VIALE DEL TIRRENO, 153",
         "ZIP":"56128",
         "Region":"TIRRENIA",
         "State":"PI",
         "Country code":"IT"
      },
      {
         "ClientID":"41295",
         "Company name":"SOCIETÀ IMMOBILIARE ALBERGHI SRL",
         "Company name 2":"GRAND HOTEL GOLF",
         "Address":"VIA DELL' EDERA, 29",
         "ZIP":"56128",
         "Region":"TIRRENIA",
         "State":"PI",
         "Country code":"IT"
      },
      {
         "ClientID":"41241",
         "Company name":"I DUE MASTRI SNC di SETTESOLDI CRISTIANO",
         "Address":"VIA ENRICO DE NICOLA, 34",
         "ZIP":"59013",
         "Region":"MONTEMURLO",
         "State":"PO",
         "Country code":"IT"
      },
      {
         "ClientID":"40443",
         "Company name":"PACINI PIERO DI PACINI IACOPO &C. SNC",
         "Address":"VIA VILLA SNC",
         "ZIP":"51019",
         "Region":"PONTE BUGGIANESE",
         "State":"PT",
         "Country code":"IT"
      },
      {
         "ClientID":"41000",
         "Company name":"G.D.A. SERVICE SRL",
         "Address":"VIA BUTTARELLI, N. 22",
         "ZIP":"00044",
         "Region":"FRASCATI",
         "State":"RM",
         "Country code":"IT"
      },
      {
         "ClientID":"41315",
         "Company name":"NEXT POINT SRLS",
         "Address":"VIA CAMPO SELVA, 17",
         "ZIP":"00070",
         "Region":"POMEZIA",
         "State":"RM",
         "Country code":"IT"
      },
      {
         "ClientID":"41252",
         "Company name":"TAVOLA FARNESIANA SRL",
         "Address":"VIA UMBRIA, 7",
         "ZIP":"00186",
         "Region":"ROMA",
         "State":"RM",
         "Country code":"IT"
      },
      {
         "ClientID":"41273",
         "Company name":"LOUIS CYPHRE SRLS",
         "Address":"VIA GASPERINA, 188",
         "ZIP":"00173",
         "Region":"ROMA",
         "State":"RM",
         "Country code":"IT"
      },
      {
         "ClientID":"41277",
         "Company name":"NADIA E LAURA PIETROMARCHI SRLS",
         "Address":"VIALE BEATA VERGINE DEL CARMELO, 13",
         "ZIP":"00144",
         "Region":"ROMA",
         "State":"RM",
         "Country code":"IT"
      },
      {
         "ClientID":"41278",
         "Company name":"ENOTECA L'AGRIFOGLIO SRLS",
         "Address":"VIA GUIDO CASTELNUOVO, 2",
         "ZIP":"00146",
         "Region":"ROMA",
         "State":"RM",
         "Country code":"IT"
      },
      {
         "ClientID":"41284",
         "Company name":"CASTRONI A VIALE MARCONI SRL",
         "Address":"VIALE GUGLIELMO MARCONI, 102\/106",
         "ZIP":"00146",
         "Region":"ROMA",
         "State":"RM",
         "Country code":"IT"
      },
      {
         "ClientID":"41291",
         "Company name":"UN TOCCO IN PIU' SRLS",
         "Address":"PIAZZA G. DA VERRAZZANO, 34\/35",
         "ZIP":"00154",
         "Region":"ROMA",
         "State":"RM",
         "Country code":"IT"
      },
      {
         "ClientID":"41302",
         "Company name":"FAUSTINI FRANCESCA",
         "Address":"VIA SARSINA 101\/101A",
         "ZIP":"00127",
         "Region":"ROMA",
         "State":"RM",
         "Country code":"IT"
      },
      {
         "ClientID":"41306",
         "Company name":"VICE s.r.l.",
         "Address":"VIA BELFIORE, 93",
         "ZIP":"45020",
         "Region":"VILLANOVA DEL GHEBBO",
         "State":"RO",
         "Country code":"IT"
      },
      {
         "ClientID":"40253",
         "Company name":"MAGIC HOTEL di MARINO ANTONIO",
         "Address":"VIA MAGLIANELLO, 13",
         "ZIP":"84030",
         "Region":"ATENA LUCANA",
         "State":"SA",
         "Country code":"IT"
      },
      {
         "ClientID":"41340",
         "Company name":"SEZIONE ASSOCIAZ. ARBITRI di BATTIPAGLIA",
         "Address":"VIA RAVENNA, 6",
         "ZIP":"84091",
         "Region":"BATTIPAGLIA",
         "State":"SA",
         "Country code":"IT"
      },
      {
         "ClientID":"41320",
         "Company name":"AMANTI SRL",
         "Address":"VIA A. VESPUCCI, 50",
         "ZIP":"84092",
         "Region":"BELLIZZI",
         "State":"SA",
         "Country code":"IT"
      },
      {
         "ClientID":"41286",
         "Company name":"RICCO GROUP SRL",
         "Address":"VIA ORESTE LEONARDI 1",
         "ZIP":"84025",
         "Region":"EBOLI",
         "State":"SA",
         "Country code":"IT"
      },
      {
         "ClientID":"41187",
         "Company name":"IL QUADRIFOGLIO SRL",
         "Company name 2":"GESTIONE HOTEL SANTA CATERINA",
         "Address":"VIA ANTINORI, 2",
         "ZIP":"84084",
         "Region":"FISCIANO",
         "State":"SA",
         "Country code":"IT"
      },
      {
         "ClientID":"41242",
         "Company name":"TRATTORIA SANT'ANTONIO SRLS",
         "Address":"VIA ROMA, 20",
         "ZIP":"84095",
         "Region":"GIFFONI VALLE PIANA",
         "State":"SA",
         "Country code":"IT"
      },
      {
         "ClientID":"41304",
         "Company name":"IL TRIDENTE SAS DI CAPONE MICHELE & C.",
         "Company name 2":"RIST. NETTUNO",
         "Address":"VIA G. CAPONE, 1",
         "ZIP":"84010",
         "Region":"MAIORI",
         "State":"SA",
         "Country code":"IT"
      },
      {
         "ClientID":"41298",
         "Company name":"VICIDOMINI SRL",
         "Address":"VIA G. ORLANDO, 43\/47",
         "ZIP":"84014",
         "Region":"NOCERA INFERIORE",
         "State":"SA",
         "Country code":"IT"
      },
      {
         "ClientID":"40266",
         "Company name":"HOTEL CONCA D'ORO SAS",
         "Address":"VIA BOSCARIELLO, 16",
         "ZIP":"84017",
         "Region":"POSITANO",
         "State":"SA",
         "Country code":"IT"
      },
      {
         "ClientID":"41272",
         "Company name":"FUSCO PASQUALE & C. SAS",
         "Address":"VIA MONS. SAVERIO CINQUE, 9",
         "ZIP":"84017",
         "Region":"POSITANO",
         "State":"SA",
         "Country code":"IT"
      },
      {
         "ClientID":"40927",
         "Company name":"PROSIT SRL",
         "Address":"VIALE BERLINGUER, 1",
         "ZIP":"84086",
         "Region":"ROCCAPIEMONTE",
         "State":"SA",
         "Country code":"IT"
      },
      {
         "ClientID":"41178",
         "Company name":"OSTERIA DEI MERCANTI di SAVIANI VINCENZO",
         "Company name 2":"RISTORANTE",
         "Address":"VIA DEI MERCANTI, 83\/85",
         "ZIP":"84121",
         "Region":"SALERNO",
         "State":"SA",
         "Country code":"IT"
      },
      {
         "ClientID":"41279",
         "Company name":"DOLCI RICORDI di CIRO ASCIONE",
         "Address":"VIA MERCANTI, 109",
         "ZIP":"84121",
         "Region":"SALERNO",
         "State":"SA",
         "Country code":"IT"
      },
      {
         "ClientID":"41330",
         "Company name":"GALANO RAFFAELE PROF.",
         "Address":"PIAZZA 24 MAGGIO, 21",
         "ZIP":"84122",
         "Region":"SALERNO",
         "State":"SA",
         "Country code":"IT"
      },
      {
         "ClientID":"41322",
         "Company name":"ANTICHI SAPORI SRL UNIPERSONALE",
         "Address":"VIA DANTE ALIGHIERI, 163",
         "ZIP":"84018",
         "Region":"SCAFATI",
         "State":"SA",
         "Country code":"IT"
      },
      {
         "ClientID":"40009",
         "Company name":"RIST. PASCALO' SAS di VITALE & C.",
         "Address":"VIA GIUSEPPE PELLEGRINO, 154",
         "ZIP":"84019",
         "Region":"VIETRI SUL MARE",
         "State":"SA",
         "Country code":"IT"
      },
      {
         "ClientID":"41260",
         "Company name":"NONSOLOVINO SAS di GUERRANTI & C.",
         "Address":"STRADA DEI LAGHI, 38",
         "ZIP":"53035",
         "Region":"MONTERIGGIONI",
         "State":"SI",
         "Country code":"IT"
      },
      {
         "ClientID":"41312",
         "Company name":"DOPPIA G SRL",
         "Address":"STRADA DEL GIUBILEO 2",
         "ZIP":"53035",
         "Region":"MONTERIGGIONI",
         "State":"SI",
         "Country code":"IT"
      },
      {
         "ClientID":"41261",
         "Company name":"TAGII RESTAURANT di INGROSSO ANTONIO",
         "Address":"VIA DUOMO, 285",
         "ZIP":"74123",
         "Region":"TARANTO",
         "State":"TA",
         "Country code":"IT"
      },
      {
         "ClientID":"41323",
         "Company name":"DREAM BIG S.R.L. - RISTORANTE RUBINO",
         "Address":"VIA LANZO, 163",
         "ZIP":"10071",
         "Region":"BORGARO",
         "State":"TO",
         "Country code":"IT"
      },
      {
         "ClientID":"41314",
         "Company name":"ROXY BAR di RANDAZZO ALFREDO",
         "Address":"LARGO OROPA, 4",
         "ZIP":"10040",
         "Region":"DRUENTO",
         "State":"TO",
         "Country code":"IT"
      },
      {
         "ClientID":"40518",
         "Company name":"LEONE SAS di LEONE NUNZIA & C.",
         "Address":"VIA SETTIMO, 224 A",
         "ZIP":"10040",
         "Region":"LEINI",
         "State":"TO",
         "Country code":"IT"
      },
      {
         "ClientID":"41305",
         "Company name":"VERTIGO SRL",
         "Address":"VIA TORINO, 29",
         "ZIP":"10044",
         "Region":"PIANEZZA",
         "State":"TO",
         "Country code":"IT"
      },
      {
         "ClientID":"41307",
         "Company name":"GARBO SNC di PEROSINO & PUCCI",
         "Address":"CORSO ITALIA, 18",
         "ZIP":"10040",
         "Region":"PIOBESI TORINESE",
         "State":"TO",
         "Country code":"IT"
      },
      {
         "ClientID":"41283",
         "Company name":"REDI SNC di INFASCELLI e DE CESARE",
         "Address":"VIA CATANIA, 9\/A",
         "ZIP":"10153",
         "Region":"TORINO",
         "State":"TO",
         "Country code":"IT"
      },
      {
         "ClientID":"41301",
         "Company name":"LA FENICE SRL",
         "Company name 2":"PIZZERIA",
         "Address":"CORSO SAN MAURIZIO, 34\/B",
         "ZIP":"10124",
         "Region":"TORINO",
         "State":"TO",
         "Country code":"IT"
      },
      {
         "ClientID":"40703",
         "Company name":"OSCELLA SRL",
         "Address":"VIA SIBERIA, 2",
         "ZIP":"28845",
         "Region":"DOMODOSSOLA",
         "State":"VB",
         "Country code":"IT"
      },
      {
         "ClientID":"41321",
         "Company name":"WINE COUNTRY INTERNATIONAL INC.",
         "Company name 2":"DBA WINE TWIST IMPORT",
         "Address":"1620W OAKLAND PARK BLVD",
         "Region":"OAKLAND PARK, FL33311 (USA)",
         "State":"Other",
         "Country code":"US"
      },
      {
         "ClientID":"40612",
         "Company name":"FRANCOLI USA Inc.",
         "Address":"17853 SANTIAGO BLVD, SUITE 107\/138",
         "ZIP":"92861",
         "Region":"VILLA PARK (CALIFORNIA ) (USA)",
         "State":"Other",
         "Country code":"US"
      },
      {
         "ClientID":"40108",
         "Company name":"N.M. ARRIGO LTD",
         "Address":"MRIEHEL BY-PASS - BIRKIRKARA",
         "ZIP":"BKR",
         "Region":"3000  LA VALLETTA",
         "State":"Other",
         "Country code":"MALTA"
      },
      {
         "ClientID":"40609",
         "Company name":"OPIMIUS AB",
         "Address":"BLOMSTERGARDEN, 14",
         "ZIP":"23642",
         "Region":"HJARUP  (SWEDEN)",
         "State":"Other",
         "Country code":"SVEZIA"
      },
      {
         "ClientID":"41309",
         "Company name":"CONVENIENCE FOODS SPÓLKA Z O.O.",
         "Address":"ul. SAMUELA BOGUMILA LINDEGO 1C",
         "Region":"30-148 Kraków (POLONIA)",
         "State":"Other",
         "Country code":"POLONIA"
      },
      {
         "ClientID":"413091",
         "Company name":"VOS SELECTIONS",
         "Address":"55 8th Ave Suite 1209\t\t\t\t",
         "Region":"New York , NY 10018",
         "State":"Other",
         "Country code":"USA"
      },
      {
         "ClientID":413092,
         "Company name":"CLASSIC WINES OF CALIFORNIA",
         "Address":"6342 BYSTRUM ROAD",
         "Region":"95307 CERES (CALIFORNIA) - USA",
         "State":"Other",
         "Country code":"USA"
      }
   ]
}